SatCatId,ObjectName,LaunchYear,OrbitalPeriod,LaunchMass,StatusCode,Inclination,Status,UcsData,OrbitClassEstimated,LaunchSiteCountry,Owner,UseType,Purpose,LaunchVehicleClass,TLE1,TLE2,MeanMotion,Eccentricity,OrbitClass
57132,STARLINK-6128,2023,95.84,-1.0,+,43.0,Active,0,LEO,USA,USA,Unknown,Unknown,Unknown,1 57132U 23090AH  23276.44486476 -.00000964  00000+0 -56295-4 0  9996,2 57132  43.0029  60.6573 0001033 273.5223  86.5501 15.02535620 15668,15.0253562,0.0001033,LEO
57133,STARLINK-6143,2023,95.71,-1.0,+,43.0,Active,0,LEO,USA,USA,Unknown,Unknown,Unknown,1 57133U 23090AJ  23276.37144636 -.00113804  00000+0 -83294-2 0  9993,2 57133  43.0004  48.8069 0001750 244.3512 115.7150 15.03501840 15790,15.0350184,0.000175,LEO
57134,STARLINK-6133,2023,95.71,-1.0,+,43.0,Active,0,LEO,USA,USA,Unknown,Unknown,Unknown,1 57134U 23090AK  23276.52083026 -.00068272  00000+0 -49080-2 0  9999,2 57134  43.0031  48.2094 0002534 217.2495 142.8172 15.03884919 15812,15.03884919,0.0002534,LEO
57135,STARLINK-6127,2023,95.84,-1.0,+,43.0,Active,0,LEO,USA,USA,Unknown,Unknown,Unknown,1 57135U 23090AL  23276.43191938 -.00000786  00000+0 -43102-4 0  9999,2 57135  43.0032  48.4035 0001250 282.2830  77.7872 15.02530884 15800,15.02530884,0.000125,LEO
57136,STARLINK-6112,2023,95.71,-1.0,+,43.0,Active,0,LEO,USA,USA,Unknown,Unknown,Unknown,1 57136U 23090AM  23276.25001157  .00024655  00000+0  18346-2 0  9992,2 57136  43.0031  49.6089 0001674 275.4080  89.4248 15.02519264 15775,15.02519264,0.0001674,LEO
57137,STARLINK-5347,2023,95.73,-1.0,+,43.0,Active,0,LEO,USA,USA,Unknown,Unknown,Unknown,1 57137U 23090AN  23276.25001157  .00049198  00000+0  36328-2 0  9992,2 57137  43.0027  49.4366 0001459 262.0488 174.8585 15.02522581 15782,15.02522581,0.0001459,LEO
57138,STARLINK-5336,2023,95.84,-1.0,+,43.0,Active,0,LEO,USA,USA,Unknown,Unknown,Unknown,1 57138U 23090AP  23276.25001157  .00049408  00000+0  36500-2 0  9999,2 57138  43.0033  49.5940 0001403 266.4307 104.4306 15.02503470 15771,15.0250347,0.0001403,LEO
57139,STARLINK-5355,2023,95.84,-1.0,+,43.0,Active,0,LEO,USA,USA,Unknown,Unknown,Unknown,1 57139U 23090AQ  23275.76602659 -.00000422  00000+0 -16134-4 0  9997,2 57139  43.0029  52.0058 0001227 272.2661  87.8040 15.02535496 16658,15.02535496,0.0001227,LEO
57140,STARLINK-5354,2023,95.84,-1.0,+,43.0,Active,0,LEO,USA,USA,Unknown,Unknown,Unknown,1 57140U 23090AR  23276.58334491 -.00054863  00000+0 -40749-2 0  9991,2 57140  43.0026  47.6126 0001318 267.1512 180.9146 15.02565301 15820,15.02565301,0.0001318,LEO
57141,STARLINK-5357,2023,95.84,-1.0,+,43.0,Active,0,LEO,USA,USA,Unknown,Unknown,Unknown,1 57141U 23090AS  23276.49173380 -.00000868  00000+0 -49183-4 0  9999,2 57141  43.0017  47.9906 0000952 277.4993  82.5741 15.02538403 15810,15.02538403,9.52e-05,LEO
57142,STARLINK-5361,2023,95.84,-1.0,+,43.0,Active,0,LEO,USA,USA,Unknown,Unknown,Unknown,1 57142U 23090AT  23276.48729375 -.00000159  00000+0  32709-5 0  9999,2 57142  43.0028  47.9573 0001076 277.9355  82.1365 15.02535882 15814,15.02535882,0.0001076,LEO
57143,STARLINK-5358,2023,95.84,-1.0,+,43.0,Active,0,LEO,USA,USA,Unknown,Unknown,Unknown,1 57143U 23090AU  23276.48396610 -.00002400  00000+0 -16260-3 0  9996,2 57143  43.0027  47.9321 0001162 273.9651  86.1058 15.02545744 15817,15.02545744,0.0001162,LEO
57144,STARLINK-5150,2023,95.84,-1.0,+,43.0,Active,0,LEO,USA,USA,Unknown,Unknown,Unknown,1 57144U 23090AV  23276.09619832 -.00000211  00000+0 -56386-6 0  9992,2 57144  43.0025  50.1831 0000978 286.8219  73.2516 15.02532844 15751,15.02532844,9.78e-05,LEO
57145,STARLINK-5768,2023,95.84,-1.0,+,43.0,Active,0,LEO,USA,USA,Unknown,Unknown,Unknown,1 57145U 23090AW  23276.07622389 -.00001141  00000+0 -69411-4 0  9996,2 57145  43.0026  50.0319 0000914 282.9222  77.1518 15.02530276 15756,15.02530276,9.14e-05,LEO
57146,STARLINK-5791,2023,95.84,-1.0,+,43.0,Active,0,LEO,USA,USA,Unknown,Unknown,Unknown,1 57146U 23090AX  23275.81696843 -.00000980  00000+0 -57474-4 0  9990,2 57146  43.0027  51.5276 0001112 287.0792  72.9928 15.02533386 15714,15.02533386,0.0001112,LEO
57147,STARLINK-5765,2023,95.84,-1.0,+,43.0,Active,0,LEO,USA,USA,Unknown,Unknown,Unknown,1 57147U 23090AY  23275.80586972 -.00001446  00000+0 -92035-4 0  9991,2 57147  43.0026  51.4416 0001143 281.9695  78.1019 15.02533004 16850,15.02533004,0.0001143,LEO
57148,STARLINK-5788,2023,95.84,-1.0,+,43.0,Active,0,LEO,USA,USA,Unknown,Unknown,Unknown,1 57148U 23090AZ  23275.79920939 -.00001141  00000+0 -69412-4 0  9990,2 57148  43.0033  51.3917 0001147 280.9990  79.0723 15.02533795 16663,15.02533795,0.0001147,LEO
57149,STARLINK-5778,2023,92.52,-1.0,+,43.0,Active,0,LEO,USA,USA,Unknown,Unknown,Unknown,1 57149U 23090BA  23275.91667824 -.00911220  00000+0 -15292-1 0  9998,2 57149  42.9999  31.1250 0001574 287.4686 168.7400 15.53703456  5987,15.53703456,0.0001574,LEO
57150,STARLINK-5780,2023,95.84,-1.0,+,43.0,Active,0,LEO,USA,USA,Unknown,Unknown,Unknown,1 57150U 23090BB  23276.47841974 -.00001726  00000+0 -11273-3 0  9990,2 57150  43.0030  47.8891 0001029 269.1370  90.9354 15.02534497 15812,15.02534497,0.0001029,LEO
57151,STARLINK-5776,2023,95.84,-1.0,+,43.0,Active,0,LEO,USA,USA,Unknown,Unknown,Unknown,1 57151U 23090BC  23275.81253019 -.00001380  00000+0 -87122-4 0  9998,2 57151  43.0025  51.4934 0001024 282.0732  77.9995 15.02530899 16850,15.02530899,0.0001024,LEO
57152,STARLINK-6164,2023,95.84,-1.0,+,43.0,Active,0,LEO,USA,USA,Unknown,Unknown,Unknown,1 57152U 23090BD  23276.08177253 -.00002051  00000+0 -13682-3 0  9999,2 57152  43.0019  50.0740 0000931 281.0362  79.0375 15.02532814 15750,15.02532814,9.31e-05,LEO
57153,STARLINK-5879,2023,94.96,-1.0,+,43.0,Active,0,LEO,USA,USA,Unknown,Unknown,Unknown,1 57153U 23090BE  23275.91667824 -.00919832  00000+0 -54225-1 0  9999,2 57153  42.9990  38.6599 0001403 275.7717 332.2117 15.13713863  6070,15.13713863,0.0001403,LEO
57154,STARLINK-6106,2023,95.84,-1.0,+,43.0,Active,0,LEO,USA,USA,Unknown,Unknown,Unknown,1 57154U 23090BF  23276.47176070 -.00000959  00000+0 -55965-4 0  9996,2 57154  43.0031  47.8381 0001199 268.5698  91.5007 15.02528064 15810,15.02528064,0.0001199,LEO
57155,STARLINK-6108,2023,95.84,-1.0,+,43.0,Active,0,LEO,USA,USA,Unknown,Unknown,Unknown,1 57155U 23090BG  23275.79366112 -.00001318  00000+0 -82522-4 0  9998,2 57155  43.0034  51.3493 0000983 273.7488  86.3242 15.02532994 16858,15.02532994,9.83e-05,LEO
57156,STARLINK-6137,2023,95.84,-1.0,+,43.0,Active,0,LEO,USA,USA,Unknown,Unknown,Unknown,1 57156U 23090BH  23275.79588232 -.00000831  00000+0 -46461-4 0  9999,2 57156  43.0027  51.3667 0000672 261.6539  98.4228 15.02530777 16857,15.02530777,6.72e-05,LEO
57166,METEOR-M2 3,2023,101.13,-1.0,+,98.75,Active,0,LEO,Russia,Russia/USSR,Unknown,Unknown,Unknown,1 57166U 23091A   23276.50269877  .00000040  00000+0  37035-4 0  9999,2 57166  98.7534 327.9736 0004623 144.6081 215.5405 14.23845638 13953,14.23845638,0.0004623,LEO
57167,STRATOSAT-TK 1 (RS52S),2023,95.69,-1.0,+,97.65,Active,0,LEO,Russia,Russia/USSR,Unknown,Unknown,Unknown,1 57167U 23091B   23276.48500436  .00013508  00000+0  95655-3 0  9990,2 57167  97.6531 326.2552 0016312 278.9835  80.9545 15.04836365 14714,15.04836365,0.0016312,LEO
57168,OBJECT C,2023,95.73,-1.0,+,97.65,Active,0,LEO,Russia,Russia/USSR,Unknown,Unknown,Unknown,1 57168U 23091C   23276.49507544  .00007578  00000+0  54699-3 0  9992,2 57168  97.6520 326.2398 0016866 278.2527  81.6786 15.04279548 14715,15.04279548,0.0016866,LEO
57169,OBJECT D,2023,95.72,-1.0,+,97.65,Active,0,LEO,Russia,Russia/USSR,Unknown,Unknown,Unknown,1 57169U 23091D   23276.48645045  .00007253  00000+0  52229-3 0  9998,2 57169  97.6547 326.2697 0014534 276.4399  83.5172 15.04410808 14710,15.04410808,0.0014534,LEO
57170,OBJECT E,2023,95.72,-1.0,+,97.66,Active,0,LEO,Russia,Russia/USSR,Unknown,Unknown,Unknown,1 57170U 23091E   23276.41794088  .00006670  00000+0  48076-3 0  9992,2 57170  97.6554 326.2127 0014566 276.8514  83.1055 15.04407515 14702,15.04407515,0.0014566,LEO
57171,OBJECT F,2023,95.72,-1.0,+,97.66,Active,0,LEO,Russia,Russia/USSR,Unknown,Unknown,Unknown,1 57171U 23091F   23276.48241187  .00006991  00000+0  50364-3 0  9996,2 57171  97.6551 326.2768 0014154 274.9251  85.0359 15.04415182 14719,15.04415182,0.0014154,LEO
57172,UMKA 1 (RS40S),2023,95.74,-1.0,+,97.65,Active,0,LEO,Russia,Russia/USSR,Unknown,Unknown,Unknown,1 57172U 23091G   23276.49767757  .00007152  00000+0  51799-3 0  9997,2 57172  97.6517 326.2384 0016850 278.4811  81.4505 15.04170919 14711,15.04170919,0.001685,LEO
57173,OBJECT H,2023,95.75,-1.0,+,97.65,Active,0,LEO,Russia,Russia/USSR,Unknown,Unknown,Unknown,1 57173U 23091H   23276.52375518  .00007567  00000+0  55208-3 0  9991,2 57173  97.6531 326.2051 0014425 289.6448  70.3220 15.03904382 14714,15.03904382,0.0014425,LEO
57174,OBJECT J,2023,95.78,-1.0,+,97.65,Active,0,LEO,Russia,Russia/USSR,Unknown,Unknown,Unknown,1 57174U 23091J   23276.53335741  .00005488  00000+0  40561-3 0  9993,2 57174  97.6534 326.1886 0014197 289.1579  70.8110 15.03545962 14717,15.03545962,0.0014197,LEO
57175,CUBEBEL 2 (EU11S),2023,95.76,-1.0,+,97.65,Active,0,LEO,Russia,Belarus,Unknown,Unknown,Unknown,1 57175U 23091K   23276.53248448  .00008032  00000+0  58728-3 0  9993,2 57175  97.6532 326.1875 0014464 292.3432  67.6260 15.03803654 14710,15.03803654,0.0014464,LEO
57176,SITRO-AIS 5 (KATYS),2023,95.74,-1.0,+,97.65,Active,0,LEO,Russia,Russia/USSR,Unknown,Unknown,Unknown,1 57176U 23091L   23276.51549145  .00007270  00000+0  52826-3 0  9996,2 57176  97.6528 326.2285 0017660 279.0720  80.8507 15.04031015 14711,15.04031015,0.001766,LEO
57177,ZORKIY 2M,2023,95.74,-1.0,+,97.65,Active,0,LEO,Russia,Russia/USSR,Unknown,Unknown,Unknown,1 57177U 23091M   23276.50547456  .00007004  00000+0  50827-3 0  9993,2 57177  97.6527 326.2548 0017677 274.2140  85.7065 15.04092461 14719,15.04092461,0.0017677,LEO
